API VERSION: 1.2
API SOURCE: NASA/JPL Horizons API



*******************************************************************************
Ephemeris / API_USER Mon Apr 13 11:59:21 2026 Pasadena, USA      / Horizons
*******************************************************************************
Target body name: Mercury (199)                   {source: DE441}
Center body name: Earth (399)                     {source: DE441}
Center-site name: BODY CENTER
*******************************************************************************
Start time      : A.D. 2026-Sep-10 18:53:00.0001 TDB
Stop  time      : A.D. 2026-Sep-12 18:53:00.0001 TDB
Step-size       : 60 minutes
*******************************************************************************
Center geodetic : 0.0, 0.0, 0.0                   {E-lon(deg),Lat(deg),Alt(km)}
Center cylindric: 0.0, 0.0, 0.0                   {E-lon(deg),Dxy(km),Dz(km)}
Center radii    : 6378.137, 6378.137, 6356.752 km {Equator_a, b, pole_c}
Output units    : AU-D
Calendar mode   : Mixed Julian/Gregorian
Output type     : GEOMETRIC cartesian states
Output format   : 3 (position, velocity, LT, range, range-rate)
EOP file        : eop.260410.p260707
EOP coverage    : DATA-BASED 1962-JAN-20 TO 2026-APR-10. PREDICTS-> 2026-JUL-06
Reference frame : Ecliptic of J2000.0
*******************************************************************************
            JDTDB,            Calendar Date (TDB),                      X,                      Y,                      Z,                     VX,                     VY,                     VZ,                     LT,                     RG,                     RR,
**************************************************************************************************************************************************************************************************************************************************************************
$$SOE
2461295.536805557, A.D. 2026-Sep-12 00:53:00.0001, -1.351075326083613E+00, -4.511225627612260E-02,  1.382270276094891E-02,  6.637412087435879E-03, -3.910759389289264E-02, -2.706600031750905E-03,  7.807917058007615E-03,  1.351898930959664E+00, -5.356039763221588E-03,
2461295.578472224, A.D. 2026-Sep-12 01:53:00.0001, -1.350797381819892E+00, -4.674104166535432E-02,  1.370988470902607E-02,  6.703892197314334E-03, -3.907408704203807E-02, -2.708663228810267E-03,  7.806625763889385E-03,  1.351675350313888E+00, -5.375826345107633E-03,
2461295.620138890, A.D. 2026-Sep-12 02:53:00.0001, -1.350516670098067E+00, -4.836842871994727E-02,  1.359698109427272E-02,  6.770250082697374E-03, -3.904047389428031E-02, -2.710707053691451E-03,  7.805329711721090E-03,  1.351450945837283E+00, -5.395583667826497E-03,
2461295.661805557, A.D. 2026-Sep-12 03:53:00.0001, -1.350233196010040E+00, -4.999441301885876E-02,  1.348399272310397E-02,  6.836485781299551E-03, -3.900675483311036E-02, -2.712731542810354E-03,  7.804028908526010E-03,  1.351225718745889E+00, -5.415311879560577E-03,
2461295.703472224, A.D. 2026-Sep-12 04:53:00.0001, -1.349946964646133E+00, -5.161899015699225E-02,  1.337092040041953E-02,  6.902599331336852E-03, -3.897293024046082E-02, -2.714736732494043E-03,  7.802723361291819E-03,  1.350999670249586E+00, -5.435011128046308E-03,
2461295.745138890, A.D. 2026-Sep-12 05:53:00.0001, -1.349657981095066E+00, -5.324215574513258E-02,  1.325776492960718E-02,  6.968590771519556E-03, -3.893900049671100E-02, -2.716722658980403E-03,  7.801413076970696E-03,  1.350772801552106E+00, -5.454681560575221E-03,
2461295.786805557, A.D. 2026-Sep-12 06:53:00.0001, -1.349366250443933E+00, -5.486390540988182E-02,  1.314452711254681E-02,  7.034460141045164E-03, -3.890496598069206E-02, -2.718689358417782E-03,  7.800098062479421E-03,  1.350545113851053E+00, -5.474323323995047E-03,
2461295.828472224, A.D. 2026-Sep-12 07:53:00.0001, -1.349071777778187E+00, -5.648423479359405E-02,  1.303120774961385E-02,  7.100207479591315E-03, -3.887082706969197E-02, -2.720636866864698E-03,  7.798778324699495E-03,  1.350316608337922E+00, -5.493936564710766E-03,
2461295.870138890, A.D. 2026-Sep-12 08:53:00.0001, -1.348774568181617E+00, -5.810313955431195E-02,  1.291780763968333E-02,  7.165832827308758E-03, -3.883658413946062E-02, -2.722565220289510E-03,  7.797453870477241E-03,  1.350087286198115E+00, -5.513521428685646E-03,
2461295.911805557, A.D. 2026-Sep-12 09:53:00.0001, -1.348474626736331E+00, -5.972061536570238E-02,  1.280432758013336E-02,  7.231336224814372E-03, -3.880223756421484E-02, -2.724474454570096E-03,  7.796124706623897E-03,  1.349857148610964E+00, -5.533078061442313E-03,
2461295.953472224, A.D. 2026-Sep-12 10:53:00.0001, -1.348171958522732E+00, -6.133665791699272E-02,  1.269076836684909E-02,  7.296717713184200E-03, -3.876778771664342E-02, -2.726364605493519E-03,  7.794790839915753E-03,  1.349626196749747E+00, -5.552606608063755E-03,
2461295.995138890, A.D. 2026-Sep-12 11:53:00.0001, -1.347866568619505E+00, -6.295126291290724E-02,  1.257713079422637E-02,  7.361977333946538E-03, -3.873323496791213E-02, -2.728235708755787E-03,  7.793452277094229E-03,  1.349394431781702E+00, -5.572107213194370E-03,
2461296.036805557, A.D. 2026-Sep-12 12:53:00.0001, -1.347558462103593E+00, -6.456442607360396E-02,  1.246341565517573E-02,  7.427115129075032E-03, -3.869857968766875E-02, -2.730087799961503E-03,  7.792109024865984E-03,  1.349161854868054E+00, -5.591580021040949E-03,
2461296.078472224, A.D. 2026-Sep-12 13:53:00.0001, -1.347247644050182E+00, -6.617614313461119E-02,  1.234962374112598E-02,  7.492131140981828E-03, -3.866382224404798E-02, -2.731920914623591E-03,  7.790761089903034E-03,  1.348928467164025E+00, -5.611025175373699E-03,
2461296.120138890, A.D. 2026-Sep-12 14:53:00.0001, -1.346934119532683E+00, -6.778640984676487E-02,  1.223575584202819E-02,  7.557025412510747E-03, -3.862896300367655E-02, -2.733735088163014E-03,  7.789408478842848E-03,  1.348694269818858E+00, -5.630442819527210E-03,
2461296.161805557, A.D. 2026-Sep-12 15:53:00.0001, -1.346617893622711E+00, -6.939522197614570E-02,  1.212181274635949E-02,  7.621797986930507E-03, -3.859400233167807E-02, -2.735530355908507E-03,  7.788051198288455E-03,  1.348459263975832E+00, -5.649833096401450E-03,
2461296.203472224, A.D. 2026-Sep-12 16:53:00.0001, -1.346298971390070E+00, -7.100257530401650E-02,  1.200779524112686E-02,  7.686448907927952E-03, -3.855894059167810E-02, -2.737306753096272E-03,  7.786689254808548E-03,  1.348223450772280E+00, -5.669196148462728E-03,
2461296.245138890, A.D. 2026-Sep-12 17:53:00.0001, -1.345977357902735E+00, -7.260846562676024E-02,  1.189370411187106E-02,  7.750978219601330E-03, -3.852377814580902E-02, -2.739064314869736E-03,  7.785322654937586E-03,  1.347986831339610E+00, -5.688532117744629E-03,
2461296.286805557, A.D. 2026-Sep-12 18:53:00.0001, -1.345653058226837E+00, -7.421288875581758E-02,  1.177954014267050E-02,  7.815385966453609E-03, -3.848851535471508E-02, -2.740803076279302E-03,  7.783951405175897E-03,  1.347749406803318E+00, -5.707841145848987E-03,
